UNKNOWN                 
1 84006U          26057.47845973  .00000051  00000+0  00000+0 0  9999
2 84006  22.3791 162.0417 6163628  87.2630 337.0722  2.16232571 85863
UNKNOWN                 
1 84188U          26059.36854196  .00160076  00000+0  81609-1 0  9997
2 84188  64.8753 187.2219 3522540   9.6794 355.6895  8.02274987 47357
UNKNOWN                 
1 84232U          26058.66232608  .00033379  00000+0  24628-1 0  9990
2 84232  20.3243 229.6471 6538405 144.7797 284.6285  3.20864733107140
UNKNOWN                 
1 84236U          26053.87896681  .00000675  00000+0  45444-2 0  9992
2 84236   9.3286 303.0215 6890481 157.9709 258.5396  2.62640383115875
UNKNOWN                 
1 84292U          26059.31192141  .00003836  00000+0  23422-2 0  9993
2 84292  23.8336  52.8501 4554817  66.9411 334.1688  6.22185237232897
UNKNOWN                 
1 84407U          26058.21812539 -.00000062  00000+0  15745-1 0  9996
2 84407  19.4512 300.0109 7208492 102.8288 339.5385  2.05796928 77447
UNKNOWN                 
1 84575U          26053.69687266 -.00000178  00000+0 -66146-2 0  9997
2 84575  18.0140 134.5257 7113236  66.3817 350.2439  2.19869117 67043
UNKNOWN                 
1 84932U          26059.55052201  .00000700  00000+0  63687-2 0  9996
2 84932   2.0449 197.0309 6576885 144.5297 129.3820  3.00122219134118
UNKNOWN                 
1 85004U          26059.40794368  .00001279  00000+0  40386-3 0  9992
2 85004  98.4325  34.3478 0045709 289.7866 222.5456 14.41325842642080
UNKNOWN                 
1 85010U          26058.09966064  .00000996  00000+0  10809-2 0  9998
2 85010  99.2482 282.6795 0026672  51.5718 101.6401 13.75239596614418
UNKNOWN                 
1 85015U          26047.31079129  .00000502  00000+0  10515-3 0  9991
2 85015  74.0482 272.7196 0014854 167.0916 193.0634 14.62388436652196
UNKNOWN                 
1 85023U          26058.58784177  .00024475  00000+0  32719-2 0  9991
2 85023  99.8434  95.8626 0002925 117.9335  35.1086 14.79496310640175
UNKNOWN                 
1 85027U          26059.01172459  .00000148  00000+0  21598-3 0  9993
2 85027  66.0398 272.2839 0170872 149.1397 211.9849 13.74279697615234
UNKNOWN                 
1 85047U          26058.90112575  .00010730  00000+0  17285-1 0  9999
2 85047 102.1675  45.5190 0108539 211.2793 148.1841 13.46433784587036
UNKNOWN                 
1 85061U          26059.45298963  .00003871  00000+0  15271-1 0  9993
2 85061 102.3972  55.3789 0271722  37.8783 114.2345 12.77607706565706
UNKNOWN                 
1 85100U          26057.76610248  .00000333  00000+0  11232-3 0  9998
2 85100  74.0437  82.2267 0013878 289.6278 188.8995 14.40785160644296
UNKNOWN                 
1 85106U          26057.26552829  .00000600  00000+0  70206-3 0  9992
2 85106 100.0525 166.8395 0010420 178.8967 211.9837 13.73014065613434
UNKNOWN                 
1 85151U          26059.08428676  .00021439  00000+0  26620-2 0  9999
2 85151  98.4014 291.7534 0007157 264.8263  95.2132 14.82603820490975
UNKNOWN                 
1 85210U          26058.24862448  .00000243  00000+0  26989-3 0  9990
2 85210  99.8607 206.3446 0217441 118.9570   1.2976 13.71662796612644
UNKNOWN                 
1 85217U          26059.20034274  .00002646  00000+0  70275-3 0  9998
2 85217  98.0236 153.5366 0206054 253.9657 103.8752 14.37581932638989
UNKNOWN                 
1 85237U          26054.35491965  .00013478  00000+0  26977-2 0  9999
2 85237  65.5338  24.2147 0516167 354.4749   5.0755 14.01835433618525
UNKNOWN                 
1 85238U          26058.66691270  .00000036  00000+0  64970-4 0  9992
2 85238  99.0677 350.6712 0063392 353.6136 123.9326 13.88358693621515
UNKNOWN                 
1 85246U          26059.25494765  .00001723  00000+0  62083-3 0  9993
2 85246  97.9902  60.4942 0223941  75.3870 287.2025 14.21743009634087
UNKNOWN                 
1 85373U          26059.36989647  .00002247  00000+0  15371-2 0  9993
2 85373 100.4246 111.2114 0050441  35.3774  27.5635 14.00381926622999
UNKNOWN                 
1 85425U          26033.71181694  .00000000  00000+0  00000+0 0  9993
2 85425  51.2937 156.4139 6775828 239.1756 342.8295  3.07857636    06
UNKNOWN                 
1 87014U          26058.87891300  .00002630  00000+0  40265-2 0  9996
2 87014 100.4829  32.4463 0052709  48.7635 340.6865 13.52283853601340
UNKNOWN                 
1 87029U          26056.04083260  .00000958  00000+0  60630-3 0  9997
2 87029  98.7453  93.6492 0081636  42.6311 318.1154 14.04679370603438
UNKNOWN                 
1 87042U          26059.39462680  .00000862  00000+0  53452-3 0  9998
2 87042  98.7040 104.7865 0042795 234.4958 125.2216 14.07259677564882
UNKNOWN                 
1 87051U          26059.32077692  .00001276  00000+0  47203-3 0  9993
2 87051  65.7276  69.3456 0708930 105.7925 262.2413 13.46226817599020
UNKNOWN                 
1 87054U          26059.64363294  .00001799  00000+0  10222-2 0  9997
2 87054 100.0903 313.6361 0012964 127.9635 232.2705 14.11431884627312
UNKNOWN                 
1 87071U          26059.50037786  .00005187  00000+0  18767-2 0  9992
2 87071  61.2215  40.5741 0472857 276.7392  78.0057 13.86537266613264
UNKNOWN                 
1 87129U          26059.52446147  .00000190  00000+0  17061-2 0  9998
2 87129 102.2550 156.4113 0030107 291.9149  67.8715 12.42853067556335
UNKNOWN                 
1 87159U          26059.48067816  .00001382  00000+0  16012-2 0  9997
2 87159  90.3448  72.2002 0105350  27.8472 332.8272 13.66288706567302
UNKNOWN                 
1 87163U          26057.95751171  .00004871  00000+0  14429-2 0  9992
2 87163  65.6000  48.2473 0645483  30.4801 333.2165 13.64332481587916
UNKNOWN                 
1 87164U          26059.57227744  .00004202  00000+0  84687-3 0  9999
2 87164  65.2024 101.5097 0105127  18.1644 342.3166 14.59199266647127
UNKNOWN                 
1 87204U          26059.40246275  .00002110  00000+0  82849-3 0  9990
2 87204  98.5336 283.6697 0046287  95.1961 265.4506 14.29758741636535
UNKNOWN                 
1 87211U          26055.81893811  .00003419  00000+0  93562-3 0  9990
2 87211  99.0886  65.9782 0051590 299.6495 186.2543 14.47142657718480
UNKNOWN                 
1 87214U          26059.45586439  .00001813  00000+0  16393-2 0  9994
2 87214 100.3326  70.7631 0069362  55.5242 305.2436 13.84244605610997
UNKNOWN                 
1 87237U          26058.44844262  .00000431  00000+0  35677-3 0  9990
2 87237  99.2441 118.7306 0103813  77.3089 300.5200 13.91832820622438
UNKNOWN                 
1 87239U          26059.29436601  .00010307  00000+0  24486-2 0  9998
2 87239  82.8765  16.9071 0019179 143.6847 216.5658 14.53717324639133
UNKNOWN                 
1 87245U          26058.54337009  .00004100  00000+0  85673-3 0  9994
2 87245  65.6433 202.2819 0426320  82.7465 299.0983 14.16637432625086
UNKNOWN                 
1 87271U          26058.62737490  .00013424  00000+0  23990-2 0  9992
2 87271  65.7553  29.4567 0420330  32.8390 329.8077 14.22741818623306
UNKNOWN                 
1 87280U          26059.24199557  .00000335  00000+0  63826-3 0  9997
2 87280  64.6157  43.6763 0128511 246.1752 112.5772 13.48636740544303
UNKNOWN                 
1 87293U          26059.63484137  .00005788  00000+0  11045-2 0  9997
2 87293  65.8967 297.9870 0427597 317.6744  39.2065 14.19561424625049
UNKNOWN                 
1 87300U          26059.42761507  .00001712  00000+0  12005-2 0  9992
2 87300 100.0983  54.7456 0026751  85.1344 275.2871 13.99764893623987
UNKNOWN                 
1 87304U          26055.06946452  .00002205  00000+0  32596-3 0  9992
2 87304  74.0188 177.3609 0016746 130.9964 229.2662 14.75775931657298
UNKNOWN                 
1 87320U          26058.95885070  .00001226  00000+0  78443-3 0  9992
2 87320  66.5909 260.0308 0420775   5.2633 355.2650 13.70441085604324
UNKNOWN                 
1 87334U          26059.56858575  .00016284  00000+0  90111-2 0  9990
2 87334  90.0068 271.6984 0067625 352.6141   7.4040 14.10064044397609
UNKNOWN                 
1 87335U          26059.56571064  .00016569  00000+0  90229-2 0  9992
2 87335  89.9977 267.8884 0085998 333.1219  26.5522 14.10218876397932
UNKNOWN                 
1 87405U          26059.23499833  .00002667  00000+0  18827-2 0  9995
2 87405  82.7530 358.9626 0059686 105.0236 255.7548 13.96738380621970
UNKNOWN                 
1 87426U          26059.45910420  .00004337  00000+0  16495-2 0  9997
2 87426  65.7823 123.6800 0070352 259.1149 120.3777 14.30556430633705
UNKNOWN                 
1 87448U          26059.42414740  .00001351  00000+0  11045-2 0  9991
2 87448 100.4517 280.5467 0063992   2.7143 357.4347 13.90856034620032
UNKNOWN                 
1 87456U          26053.00608493  .00003756  00000+0  55206-3 0  9997
2 87456  65.7710 261.5960 0509514 328.3661  28.7697 14.15044008621577
UNKNOWN                 
1 87517U          26058.26588621  .00005423  00000+0  14780-2 0  9992
2 87517  65.8234  46.2503 0674630 270.0360 105.7622 13.62010424603333
UNKNOWN                 
1 87541U          26057.83579927  .00000088  00000+0  25095-3 0  9994
2 87541  99.7045 272.9276 0060335  77.8886 347.3893 13.35610795592190
UNKNOWN                 
1 87553U          26059.54484074  .00005145  00000+0  15890-2 0  9995
2 87553  65.6702 167.5064 0692535 192.9918 165.2471 13.54050515601781
UNKNOWN                 
1 87557U          26058.59031559  .00003510  00000+0  77286-2 0  9990
2 87557 101.7678 289.2091 0059809 220.8160 138.8467 13.28476145575235
UNKNOWN                 
1 87561U          26058.62435838 -.00000037  00000+0  50119-4 0  9997
2 87561 101.9963 119.0036 0175894 152.3533   8.5019 12.32165647551904
UNKNOWN                 
1 87565U          26058.44343733  .00001532  00000+0  84316-3 0  9998
2 87565  99.9521  62.5801 0171258 323.4628  35.4951 14.06233624627218
